COSMOS 1536             
1 14699U 84013A   26098.39712047  .00006219  00000+0  25272-3 0  9991
2 14699  82.5429  78.3024 0014609 170.1168 190.0360 15.24269451277148
SL-14 R/B               
1 14820U 84027B   26098.59065506  .00000524  00000+0  57029-4 0  9994
2 14820  82.5434 216.9700 0016810 231.4250 128.5461 14.86011142252072
SL-8 R/B                
1 15483U 85006B   26098.58457535  .00000246  00000+0  90040-4 0  9995
2 15483  74.0465 206.1381 0017358 114.6551 345.9227 14.37805250158323
SL-12 R/B(2)            
1 15772U 85042D   26098.54358461  .00000023  00000+0  31813-4 0  9996
2 15772  71.1104  24.6546 0032931  78.5881  99.7486 14.21991618118634
SL-14 R/B               
1 15945U 85069B   26098.22973360  .00000456  00000+0  48646-4 0  9995
2 15945  82.5300 357.1643 0020353  94.1570 266.1974 14.86466583177227
SL-16 R/B               
1 16182U 85097B   26098.66583690  .00000065  00000+0  56624-4 0  9992
2 16182  71.0012  77.4414 0008980 223.2984 309.6722 14.16602529 91479
SL-14 R/B               
1 16496U 86006B   26098.46838178  .00000941  00000+0  97019-4 0  9999
2 16496  82.5270 231.7067 0076680 172.9007 187.3317 14.86870485153630
COSMOS 1743             
1 16719U 86034A   26098.28064178  .00047384  00000+0  55455-3 0  9998
2 16719  82.5316  42.7155 0006246 145.4486 214.7179 15.61336316184868
SL-14 R/B               
1 16792U 86046B   26098.57797657  .00000497  00000+0  54262-4 0  9999
2 16792  82.4823  51.9368 0024328 126.8995 233.4455 14.85622674130842
SL-14 R/B               
1 16882U 86055B   26098.44759420  .00000443  00000+0  48238-4 0  9998
2 16882  82.5168  98.6944 0017624 230.6815 243.1585 14.85671651123785
AJISAI (EGS)            
1 16908U 86061A   26098.58915808 -.00000092  00000+0  37322-4 0  9996
2 16908  50.0122   1.4083 0011380   3.9793  63.0401 12.44515676471722
SL-14 R/B               
1 17567U 87024B   26098.33117652  .00000503  00000+0  54349-4 0  9996
2 17567  82.5270  64.8971 0018757 157.9869 202.2157 14.86163535 92530
COSMOS 1833             
1 17589U 87027A   26098.59204686 -.00000310  00000+0 -13993-3 0  9992
2 17589  70.9163 263.1643 0022789 169.4889 190.6714 14.13041977 14545
SL-16 R/B               
1 17590U 87027B   26098.62007910  .00000047  00000+0  47045-4 0  9990
2 17590  71.0035 213.4208 0002888  65.1830 294.9594 14.17170301 19589
