[
  {
    "OBJECT_NAME": "COSMOS 1536",
    "OBJECT_ID": "1984-013A",
    "EPOCH": "2026-04-08T09:31:51.208608",
    "MEAN_MOTION": 15.24269451,
    "ECCENTRICITY": 0.00146092,
    "INCLINATION": 82.5429,
    "RA_OF_ASC_NODE": 78.3024,
    "ARG_OF_PERICENTER": 170.1168,
    "MEAN_ANOMALY": 190.036,
    "EPHEMERIS_TYPE": 0,
    "CLASSIFICATION_TYPE": "U",
    "NORAD_CAT_ID": 14699,
    "ELEMENT_SET_NO": 999,
    "REV_AT_EPOCH": 27714,
    "BSTAR": 0.00025271638,
    "MEAN_MOTION_DOT": 6.219e-5,
    "MEAN_MOTION_DDOT": 0
  },
  {
    "OBJECT_NAME": "SL-14 R/B",
    "OBJECT_ID": "1984-027B",
    "EPOCH": "2026-04-08T14:10:32.597184",
    "MEAN_MOTION": 14.86011142,
    "ECCENTRICITY": 0.00168104,
    "INCLINATION": 82.5434,
    "RA_OF_ASC_NODE": 216.97,
    "ARG_OF_PERICENTER": 231.425,
    "MEAN_ANOMALY": 128.5461,
    "EPHEMERIS_TYPE": 0,
    "CLASSIFICATION_TYPE": "U",
    "NORAD_CAT_ID": 14820,
    "ELEMENT_SET_NO": 999,
    "REV_AT_EPOCH": 25207,
    "BSTAR": 5.7029491e-5,
    "MEAN_MOTION_DOT": 5.24e-6,
    "MEAN_MOTION_DDOT": 0
  },
  {
    "OBJECT_NAME": "SL-8 R/B",
    "OBJECT_ID": "1985-006B",
    "EPOCH": "2026-04-08T14:01:47.310240",
    "MEAN_MOTION": 14.3780525,
    "ECCENTRICITY": 0.0017358,
    "INCLINATION": 74.0465,
    "RA_OF_ASC_NODE": 206.1381,
    "ARG_OF_PERICENTER": 114.6551,
    "MEAN_ANOMALY": 345.9227,
    "EPHEMERIS_TYPE": 0,
    "CLASSIFICATION_TYPE": "U",
    "NORAD_CAT_ID": 15483,
    "ELEMENT_SET_NO": 999,
    "REV_AT_EPOCH": 15832,
    "BSTAR": 9.0039605e-5,
    "MEAN_MOTION_DOT": 2.46e-6,
    "MEAN_MOTION_DDOT": 0
  },
  {
    "OBJECT_NAME": "SL-12 R/B(2)",
    "OBJECT_ID": "1985-042D",
    "EPOCH": "2026-04-08T13:02:45.710304",
    "MEAN_MOTION": 14.21991618,
    "ECCENTRICITY": 0.00329315,
    "INCLINATION": 71.1104,
    "RA_OF_ASC_NODE": 24.6546,
    "ARG_OF_PERICENTER": 78.5881,
    "MEAN_ANOMALY": 99.7486,
    "EPHEMERIS_TYPE": 0,
    "CLASSIFICATION_TYPE": "U",
    "NORAD_CAT_ID": 15772,
    "ELEMENT_SET_NO": 999,
    "REV_AT_EPOCH": 11863,
    "BSTAR": 3.1812743e-5,
    "MEAN_MOTION_DOT": 2.3e-7,
    "MEAN_MOTION_DDOT": 0
  },
  {
    "OBJECT_NAME": "SL-14 R/B",
    "OBJECT_ID": "1985-069B",
    "EPOCH": "2026-04-08T05:30:48.983040",
    "MEAN_MOTION": 14.86466583,
    "ECCENTRICITY": 0.00203531,
    "INCLINATION": 82.53,
    "RA_OF_ASC_NODE": 357.1643,
    "ARG_OF_PERICENTER": 94.157,
    "MEAN_ANOMALY": 266.1974,
    "EPHEMERIS_TYPE": 0,
    "CLASSIFICATION_TYPE": "U",
    "NORAD_CAT_ID": 15945,
    "ELEMENT_SET_NO": 999,
    "REV_AT_EPOCH": 17722,
    "BSTAR": 4.8646482e-5,
    "MEAN_MOTION_DOT": 4.56e-6,
    "MEAN_MOTION_DDOT": 0
  },
  {
    "OBJECT_NAME": "SL-16 R/B",
    "OBJECT_ID": "1985-097B",
    "EPOCH": "2026-04-08T15:58:48.308160",
    "MEAN_MOTION": 14.16602529,
    "ECCENTRICITY": 0.00089804,
    "INCLINATION": 71.0012,
    "RA_OF_ASC_NODE": 77.4414,
    "ARG_OF_PERICENTER": 223.2984,
    "MEAN_ANOMALY": 309.6722,
    "EPHEMERIS_TYPE": 0,
    "CLASSIFICATION_TYPE": "U",
    "NORAD_CAT_ID": 16182,
    "ELEMENT_SET_NO": 999,
    "REV_AT_EPOCH": 9147,
    "BSTAR": 5.662375e-5,
    "MEAN_MOTION_DOT": 6.5e-7,
    "MEAN_MOTION_DDOT": 0
  },
  {
    "OBJECT_NAME": "SL-14 R/B",
    "OBJECT_ID": "1986-006B",
    "EPOCH": "2026-04-08T11:14:28.185792",
    "MEAN_MOTION": 14.86870485,
    "ECCENTRICITY": 0.00766804,
    "INCLINATION": 82.527,
    "RA_OF_ASC_NODE": 231.7067,
    "ARG_OF_PERICENTER": 172.9007,
    "MEAN_ANOMALY": 187.3317,
    "EPHEMERIS_TYPE": 0,
    "CLASSIFICATION_TYPE": "U",
    "NORAD_CAT_ID": 16496,
    "ELEMENT_SET_NO": 999,
    "REV_AT_EPOCH": 15363,
    "BSTAR": 9.7018781e-5,
    "MEAN_MOTION_DOT": 9.41e-6,
    "MEAN_MOTION_DDOT": 0
  },
  {
    "OBJECT_NAME": "COSMOS 1743",
    "OBJECT_ID": "1986-034A",
    "EPOCH": "2026-04-08T06:44:07.449792",
    "MEAN_MOTION": 15.61336316,
    "ECCENTRICITY": 0.00062466,
    "INCLINATION": 82.5316,
    "RA_OF_ASC_NODE": 42.7155,
    "ARG_OF_PERICENTER": 145.4486,
    "MEAN_ANOMALY": 214.7179,
    "EPHEMERIS_TYPE": 0,
    "CLASSIFICATION_TYPE": "U",
    "NORAD_CAT_ID": 16719,
    "ELEMENT_SET_NO": 999,
    "REV_AT_EPOCH": 18486,
    "BSTAR": 0.00055454586,
    "MEAN_MOTION_DOT": 0.00047384,
    "MEAN_MOTION_DDOT": 0
  },
  {
    "OBJECT_NAME": "SL-14 R/B",
    "OBJECT_ID": "1986-046B",
    "EPOCH": "2026-04-08T13:52:17.175648",
    "MEAN_MOTION": 14.85622674,
    "ECCENTRICITY": 0.00243285,
    "INCLINATION": 82.4823,
    "RA_OF_ASC_NODE": 51.9368,
    "ARG_OF_PERICENTER": 126.8995,
    "MEAN_ANOMALY": 233.4455,
    "EPHEMERIS_TYPE": 0,
    "CLASSIFICATION_TYPE": "U",
    "NORAD_CAT_ID": 16792,
    "ELEMENT_SET_NO": 999,
    "REV_AT_EPOCH": 13084,
    "BSTAR": 5.4261506e-5,
    "MEAN_MOTION_DOT": 4.97e-6,
    "MEAN_MOTION_DDOT": 0
  },
  {
    "OBJECT_NAME": "SL-14 R/B",
    "OBJECT_ID": "1986-055B",
    "EPOCH": "2026-04-08T10:44:32.138880",
    "MEAN_MOTION": 14.85671651,
    "ECCENTRICITY": 0.00176246,
    "INCLINATION": 82.5168,
    "RA_OF_ASC_NODE": 98.6944,
    "ARG_OF_PERICENTER": 230.6815,
    "MEAN_ANOMALY": 243.1585,
    "EPHEMERIS_TYPE": 0,
    "CLASSIFICATION_TYPE": "U",
    "NORAD_CAT_ID": 16882,
    "ELEMENT_SET_NO": 999,
    "REV_AT_EPOCH": 12378,
    "BSTAR": 4.8237812e-5,
    "MEAN_MOTION_DOT": 4.43e-6,
    "MEAN_MOTION_DDOT": 0
  },
  {
    "OBJECT_NAME": "AJISAI (EGS)",
    "OBJECT_ID": "1986-061A",
    "EPOCH": "2026-04-08T14:08:23.258112",
    "MEAN_MOTION": 12.44515676,
    "ECCENTRICITY": 0.00113807,
    "INCLINATION": 50.0122,
    "RA_OF_ASC_NODE": 1.4083,
    "ARG_OF_PERICENTER": 3.9793,
    "MEAN_ANOMALY": 63.0401,
    "EPHEMERIS_TYPE": 0,
    "CLASSIFICATION_TYPE": "U",
    "NORAD_CAT_ID": 16908,
    "ELEMENT_SET_NO": 999,
    "REV_AT_EPOCH": 47172,
    "BSTAR": 3.7322442e-5,
    "MEAN_MOTION_DOT": -9.2e-7,
    "MEAN_MOTION_DDOT": 0
  },
  {
    "OBJECT_NAME": "SL-14 R/B",
    "OBJECT_ID": "1987-024B",
    "EPOCH": "2026-04-08T07:56:53.651328",
    "MEAN_MOTION": 14.86163535,
    "ECCENTRICITY": 0.00187576,
    "INCLINATION": 82.527,
    "RA_OF_ASC_NODE": 64.8971,
    "ARG_OF_PERICENTER": 157.9869,
    "MEAN_ANOMALY": 202.2157,
    "EPHEMERIS_TYPE": 0,
    "CLASSIFICATION_TYPE": "U",
    "NORAD_CAT_ID": 17567,
    "ELEMENT_SET_NO": 999,
    "REV_AT_EPOCH": 9253,
    "BSTAR": 5.434854e-5,
    "MEAN_MOTION_DOT": 5.03e-6,
    "MEAN_MOTION_DDOT": 0
  },
  {
    "OBJECT_NAME": "COSMOS 1833",
    "OBJECT_ID": "1987-027A",
    "EPOCH": "2026-04-08T14:12:32.848704",
    "MEAN_MOTION": 14.13041977,
    "ECCENTRICITY": 0.00227891,
    "INCLINATION": 70.9163,
    "RA_OF_ASC_NODE": 263.1643,
    "ARG_OF_PERICENTER": 169.4889,
    "MEAN_ANOMALY": 190.6714,
    "EPHEMERIS_TYPE": 0,
    "CLASSIFICATION_TYPE": "U",
    "NORAD_CAT_ID": 17589,
    "ELEMENT_SET_NO": 999,
    "REV_AT_EPOCH": 1454,
    "BSTAR": -0.00013993449,
    "MEAN_MOTION_DOT": -3.1e-6,
    "MEAN_MOTION_DDOT": 0
  },
  {
    "OBJECT_NAME": "SL-16 R/B",
    "OBJECT_ID": "1987-027B",
    "EPOCH": "2026-04-08T14:52:54.834240",
    "MEAN_MOTION": 14.17170301,
    "ECCENTRICITY": 0.00028883,
    "INCLINATION": 71.0035,
    "RA_OF_ASC_NODE": 213.4208,
    "ARG_OF_PERICENTER": 65.183,
    "MEAN_ANOMALY": 294.9594,
    "EPHEMERIS_TYPE": 0,
    "CLASSIFICATION_TYPE": "U",
    "NORAD_CAT_ID": 17590,
    "ELEMENT_SET_NO": 999,
    "REV_AT_EPOCH": 1958,
    "BSTAR": 4.7044812e-5,
    "MEAN_MOTION_DOT": 4.7e-7,
    "MEAN_MOTION_DDOT": 0
  }
]
